OBJECT_NAME,OBJECT_ID,EPOCH,MEAN_MOTION,ECCENTRICITY,INCLINATION,RA_OF_ASC_NODE,ARG_OF_PERICENTER,MEAN_ANOMALY,EPHEMERIS_TYPE,CLASSIFICATION_TYPE,NORAD_CAT_ID,ELEMENT_SET_NO,REV_AT_EPOCH,BSTAR,MEAN_MOTION_DOT,MEAN_MOTION_DDOT
STARLINK-37631,2026-123S,2026-06-27T12:00:02.000160,15.75232142,.0000935,53.1593,189.6291,57.6322,313.2678,0,U,69369,999,486,.37489E-4,.5109E-4,0
STARLINK-37673,2026-123T,2026-06-27T12:29:58.378848,15.75270344,.0001306,53.1591,189.7881,94.2804,265.8365,0,U,69370,999,367,.10278E-2,.160139E-2,0
STARLINK-37645,2026-123U,2026-06-27T12:00:02.000160,15.75225617,.0001099,53.1584,189.7345,78.7062,240.6992,0,U,69371,999,486,.11199E-3,.16551E-3,0
STARLINK-37688,2026-123V,2026-06-27T12:00:02.000160,15.78679504,.0000863,53.1577,189.5807,67.9201,325.4593,0,U,69372,999,486,-.12065E-1,-.1881097E-1,0
STARLINK-37685,2026-123W,2026-06-27T07:17:16.127232,15.80894344,.0000902,53.1560,190.5532,79.6389,280.4735,0,U,69373,999,364,.13844E-2,.281935E-2,0
STARLINK-37632,2026-123X,2026-06-27T12:00:02.000160,15.80880822,.000115,53.1561,189.5618,80.6003,321.9092,0,U,69374,999,482,-.37132E-4,-.8023E-4,0
STARLINK-37454,2026-123Y,2026-06-27T11:47:42.818784,15.81019131,.0001353,53.1556,189.5901,123.7357,236.3795,0,U,69375,999,367,.15006E-2,.308352E-2,0
STARLINK-37485,2026-123Z,2026-06-27T12:00:02.000160,15.75223684,.0001093,53.1581,189.6760,85.6580,261.3349,0,U,69376,999,495,.12985E-3,.19298E-3,0
STARLINK-37439,2026-123AA,2026-06-27T13:07:26.569056,15.80979552,.0002972,53.1559,189.2178,161.6247,198.4884,0,U,69377,999,368,.11E-2,.223234E-2,0
STARLINK-37376,2026-123AB,2026-06-27T06:24:03.225600,15.75306976,.0000907,53.1588,191.0443,104.7483,255.3638,0,U,69378,999,363,.12721E-2,.199624E-2,0
STARLINK-37383,2026-123AC,2026-06-27T12:00:02.000160,15.75246427,.0001203,53.1590,189.4650,81.8032,6.3615,0,U,69379,999,496,-.16772E-3,-.26278E-3,0
STARLINK-37411,2026-123AD,2026-06-27T13:09:23.442336,15.81032264,.0002554,53.1557,189.2267,157.2247,202.8889,0,U,69380,999,368,.16089E-2,.331786E-2,0
STARLINK-37427,2026-123AE,2026-06-27T08:00:01.999008,15.80843964,.0001182,53.1565,190.2569,101.3143,138.7510,0,U,69381,999,484,.33625E-3,.66087E-3,0
QIANFAN-165,2026-124A,2026-06-27T12:04:57.097632,14.16013967,.0003531,88.9984,0.8739,107.3597,252.7978,0,U,69382,999,327,.48816E-4,.111E-5,0
QIANFAN-166,2026-124B,2026-06-27T11:47:33.936000,14.17061188,.0003011,88.9984,0.8723,102.0695,258.0831,0,U,69383,999,327,.44391E-4,.104E-5,0
QIANFAN-167,2026-124C,2026-06-27T11:53:24.484128,14.16527467,.0003101,88.9983,0.8726,140.1218,220.0199,0,U,69384,999,327,.40644E-4,.95E-6,0
QIANFAN-168,2026-124D,2026-06-27T11:33:57.424896,14.17874456,.0003862,88.9984,0.8707,117.0436,243.1147,0,U,69385,999,327,.42508E-4,.101E-5,0
QIANFAN-169,2026-124E,2026-06-27T11:26:12.992064,14.18288189,.0004207,88.9983,0.8698,131.4990,228.6561,0,U,69386,999,327,.44745E-4,.106E-5,0
QIANFAN-170,2026-124F,2026-06-27T11:13:07.065696,14.19184969,.0003733,88.9983,0.8684,113.0591,247.0992,0,U,69387,999,327,.39999E-4,.98E-6,0
QIANFAN-171,2026-124G,2026-06-27T12:41:08.310624,14.20069080,.0003296,88.9984,0.8590,152.3053,207.8313,0,U,69388,999,328,.41348E-4,.102E-5,0
QIANFAN-172,2026-124H,2026-06-27T11:05:46.863744,14.19639814,.0003435,88.9984,0.8677,134.2172,225.9300,0,U,69389,999,327,.43762E-4,.107E-5,0
QIANFAN-173,2026-124J,2026-06-27T12:34:37.628832,14.20511185,.0003653,88.9983,0.8584,125.9865,234.1664,0,U,69390,999,328,.42459E-4,.106E-5,0
QIANFAN-174,2026-124K,2026-06-27T12:26:25.054656,14.20879857,.0003909,88.9983,0.8575,131.4238,228.7289,0,U,69391,999,328,.47232E-4,.117E-5,0
QIANFAN-175,2026-124L,2026-06-27T12:21:06.668064,14.21341237,.0004553,88.9983,0.8569,144.0763,216.0735,0,U,69392,999,328,.43218E-4,.109E-5,0
QIANFAN-176,2026-124M,2026-06-27T12:13:35.806080,14.21842552,.0003492,88.9983,0.8562,147.2156,212.9252,0,U,69393,999,328,.44556E-4,.113E-5,0
QIANFAN-177,2026-124N,2026-06-27T12:01:44.003136,14.22731940,.0004512,88.9983,0.8549,124.8804,235.2812,0,U,69394,999,328,.41927E-4,.108E-5,0
QIANFAN-178,2026-124P,2026-06-27T12:07:24.056256,14.22275574,.0003848,88.9983,0.8554,133.8571,226.2939,0,U,69395,999,328,.46912E-4,.119E-5,0
QIANFAN-179,2026-124Q,2026-06-27T11:55:53.613120,14.23098612,.0003843,88.9983,0.8541,130.2179,229.9350,0,U,69396,999,328,.42192E-4,.11E-5,0
QIANFAN-180,2026-124R,2026-06-27T11:49:56.032896,14.23620296,.0004154,88.9983,0.8537,139.7332,220.4168,0,U,69397,999,328,.44515E-4,.116E-5,0
QIANFAN-181,2026-124S,2026-06-27T11:55:09.520608,14.16650508,.0002962,88.9983,0.8728,105.6294,254.5221,0,U,69398,999,327,.41043E-4,.96E-6,0
QIANFAN-182,2026-124T,2026-06-27T11:20:13.924032,14.18739900,.0003258,88.9984,0.8693,125.3460,234.8034,0,U,69399,999,327,.47572E-4,.113E-5,0
CZ-6A R/B,2026-124U,2026-06-27T11:11:45.619008,14.57308100,.0098874,89.0256,0.7551,27.1309,333.5019,0,U,69400,999,335,.55325E-4,.286E-5,0
QIANFAN-183,2026-125A,2026-06-27T12:18:05.416416,14.16465956,.0015363,88.9954,279.2812,142.1830,218.0441,0,U,69401,999,316,.16768E-3,.348E-5,0
QIANFAN-184,2026-125B,2026-06-27T12:06:04.298688,14.16886031,.0016253,88.9954,279.2801,136.5918,223.6553,0,U,69402,999,316,.17801E-3,.372E-5,0
QIANFAN-185,2026-125C,2026-06-27T12:13:40.292832,14.16090815,.001708,88.9955,279.2808,137.1183,223.1340,0,U,69403,999,316,.1766E-3,.363E-5,0
QIANFAN-186,2026-125D,2026-06-27T13:35:40.417728,14.17436945,.0015549,88.9955,279.2709,137.6747,222.5644,0,U,69404,999,317,.17741E-3,.374E-5,0
QIANFAN-187,2026-125E,2026-06-27T13:23:48.977664,14.18347627,.0016056,88.9955,279.2695,138.7542,221.4864,0,U,69405,999,317,.17313E-3,.371E-5,0
QIANFAN-188,2026-125F,2026-06-27T13:09:01.143360,14.19439917,.0016025,88.9954,279.2678,142.2302,218.0015,0,U,69406,999,317,.17549E-3,.384E-5,0
QIANFAN-189,2026-125G,2026-06-27T13:15:08.599104,14.18758877,.0015276,88.9955,279.2686,139.6629,220.5697,0,U,69407,999,317,.17267E-3,.373E-5,0
QIANFAN-190,2026-125H,2026-06-27T13:08:48.826176,14.19221936,.0016055,88.9955,279.2681,141.2856,218.9488,0,U,69408,999,317,.1699E-3,.371E-5,0
QIANFAN-191,2026-125J,2026-06-27T12:55:22.689984,14.20093272,.0015464,88.9955,279.2665,140.1213,220.1116,0,U,69409,999,317,.17628E-3,.39E-5,0
QIANFAN-192,2026-125K,2026-06-27T12:48:32.652000,14.20519266,.0016329,88.9955,279.2660,140.4906,219.7478,0,U,69410,999,317,.176E-3,.393E-5,0
QIANFAN-193,2026-125L,2026-06-27T12:40:02.090208,14.20961851,.0016215,88.9954,279.2650,140.8584,219.3782,0,U,69411,999,317,.17805E-3,.4E-5,0
QIANFAN-194,2026-125M,2026-06-27T10:52:36.278688,14.21403541,.0015496,88.9954,279.2723,144.5859,215.6364,0,U,69412,999,315,.17809E-3,.404E-5,0
QIANFAN-195,2026-125N,2026-06-27T12:28:19.754112,14.21800945,.0016701,88.9954,279.2638,143.1186,217.1157,0,U,69413,999,317,.17689E-3,.404E-5,0
QIANFAN-196,2026-125P,2026-06-27T12:21:37.636416,14.22296052,.0016811,88.9955,279.2630,143.5608,216.6731,0,U,69414,999,317,.17257E-3,.398E-5,0
QIANFAN-197,2026-125Q,2026-06-27T12:16:25.620960,14.22740494,.0015091,88.9955,279.2624,140.5978,219.6315,0,U,69415,999,316,.1704E-3,.397E-5,0
QIANFAN-198,2026-125R,2026-06-27T12:22:57.487296,14.22067207,.0015403,88.9955,279.2631,140.0441,220.1887,0,U,69416,999,317,.17349E-3,.399E-5,0
QIANFAN-199,2026-125S,2026-06-27T12:06:24.676992,14.23630742,.0017112,88.9954,279.2613,141.0608,219.1820,0,U,69417,999,317,.17159E-3,.406E-5,0
QIANFAN-200,2026-125T,2026-06-27T13:00:58.862016,14.19640813,.0016151,88.9955,279.2671,139.0225,221.2182,0,U,69418,999,317,.1746E-3,.383E-5,0
CZ-8 R/B,2026-125U,2026-06-27T13:19:11.726112,14.39871386,.0069874,88.9976,279.1922,47.8793,312.8318,0,U,69419,999,321,.35774E-4,.132E-5,0
STARLINK-37537,2026-126A,2026-06-27T12:41:12.539040,15.75239101,.0001782,97.2822,39.0131,89.9973,270.1496,0,U,69420,999,437,.91303E-3,.138582E-2,0
STARLINK-37585,2026-126B,2026-06-27T12:25:57.747072,15.75305122,.0001147,97.2834,39.0284,121.1096,239.0282,0,U,69421,999,437,.19568E-2,.303876E-2,0
STARLINK-37573,2026-126C,2026-06-27T08:11:20.967360,15.75262159,.0002204,97.2838,38.8085,81.9195,278.2321,0,U,69422,999,434,.15782E-2,.242847E-2,0
STARLINK-37820,2026-126D,2026-06-27T08:36:10.599264,15.82814811,.0019477,97.2842,38.9388,20.5576,339.6472,0,U,69423,999,435,.34338E-1,.9203486E-1,0
STARLINK-37822,2026-126E,2026-06-27T04:21:38.239776,15.75202025,.00019406,97.2842,38.7213,69.5231,290.6242,0,U,69424,999,432,.6537445E-3,.98568E-3,0
STARLINK-37836,2026-126F,2026-06-26T20:26:33.011808,15.80112558,.0000934,97.2832,38.4045,127.6740,232.4612,0,U,69425,999,427,.20172E-2,.391436E-2,0
STARLINK-37850,2026-126G,2026-06-27T02:31:15.246912,15.79474252,.00029248,97.2847,38.6720,12.8622,347.2720,0,U,69426,999,436,-.2626689E-3,-.47236E-3,0
STARLINK-37823,2026-126H,2026-06-27T01:27:49.317408,15.75247880,.00013234,97.2843,38.5786,70.6075,289.5334,0,U,69427,999,430,.1978197E-2,.306541E-2,0
STARLINK-37834,2026-126J,2026-06-27T12:20:22.445088,15.75246481,.0002017,97.2843,39.0341,120.0796,240.0670,0,U,69428,999,437,.11736E-2,.179083E-2,0
STARLINK-37857,2026-126K,2026-06-27T04:26:43.068480,15.75206935,.00017733,97.2844,38.7164,77.7223,282.4241,0,U,69429,999,432,.79614027E-3,.120398E-2,0
STARLINK-37866,2026-126L,2026-06-27T12:00:02.000160,15.79952349,.0001709,97.2834,39.0928,76.5847,13.3004,0,U,69430,999,443,-.17536E-3,-.32317E-3,0
STARLINK-37555,2026-126M,2026-06-27T12:00:02.000160,15.75163649,.0001519,97.2843,39.0764,87.1094,324.9713,0,U,69431,999,443,.25466E-3,.3798E-3,0
STARLINK-37870,2026-126N,2026-06-27T12:00:02.000160,15.75184072,.0001597,97.2842,39.0852,95.9380,336.1344,0,U,69432,999,438,.2503E-5,.244E-5,0
STARLINK-37872,2026-126P,2026-06-27T13:07:42.826080,15.80011764,.0000866,97.2827,39.1426,152.3533,207.7781,0,U,69433,999,438,.93809E-3,.176654E-2,0
STARLINK-37815,2026-126Q,2026-06-27T01:51:11.415744,15.75278546,.0000699,97.2829,38.5564,288.5961,71.5228,0,U,69434,999,430,.16422806E-2,.253201E-2,0
STARLINK-37801,2026-126R,2026-06-27T03:02:20.959872,15.75180415,.00017237,97.2843,38.6437,127.2342,232.9080,0,U,69435,999,436,.12805922E-2,.19523E-2,0
